[{"OBJECT_NAME":"ONEWEB-0564","OBJECT_ID":"2023-029F","EPOCH":"2025-11-22T09:27:53.155008","MEAN_MOTION":13.20772835,"ECCENTRICITY":0.0001544,"INCLINATION":87.9176,"RA_OF_ASC_NODE":315.713,"ARG_OF_PERICENTER":95.1971,"MEAN_ANOMALY":264.9338,"EPHEMERIS_TYPE":0,"CLASSIFICATION_TYPE":"U","NORAD_CAT_ID":55801,"ELEMENT_SET_NO":999,"REV_AT_EPOCH":13385,"BSTAR":0.00040147,"MEAN_MOTION_DOT":1.76e-6,"MEAN_MOTION_DDOT":0},{"OBJECT_NAME":"ONEWEB-0638","OBJECT_ID":"2023-029G","EPOCH":"2025-11-22T01:09:27.060768","MEAN_MOTION":13.14502141,"ECCENTRICITY":0.0001781,"INCLINATION":87.8975,"RA_OF_ASC_NODE":331.0381,"ARG_OF_PERICENTER":106.977,"MEAN_ANOMALY":253.1555,"EPHEMERIS_TYPE":0,"CLASSIFICATION_TYPE":"U","NORAD_CAT_ID":55802,"ELEMENT_SET_NO":999,"REV_AT_EPOCH":13218,"BSTAR":-0.00063524,"MEAN_MOTION_DOT":-2.23e-6,"MEAN_MOTION_DDOT":0},{"OBJECT_NAME":"ONEWEB-0639","OBJECT_ID":"2023-029H","EPOCH":"2025-11-22T03:04:08.757696","MEAN_MOTION":13.19727777,"ECCENTRICITY":0.0002984,"INCLINATION":87.9199,"RA_OF_ASC_NODE":346.1837,"ARG_OF_PERICENTER":90.4024,"MEAN_ANOMALY":269.745,"EPHEMERIS_TYPE":0,"CLASSIFICATION_TYPE":"U","NORAD_CAT_ID":55803,"ELEMENT_SET_NO":999,"REV_AT_EPOCH":13159,"BSTAR":0.0003974,"MEAN_MOTION_DOT":1.72e-6,"MEAN_MOTION_DDOT":0},{"OBJECT_NAME":"ONEWEB-0640","OBJECT_ID":"2023-029J","EPOCH":"2025-11-21T23:33:31.650048","MEAN_MOTION":13.14502457,"ECCENTRICITY":0.0002308,"INCLINATION":87.8978,"RA_OF_ASC_NODE":331.0379,"ARG_OF_PERICENTER":108.8653,"MEAN_ANOMALY":251.2727,"EPHEMERIS_TYPE":0,"CLASSIFICATION_TYPE":"U","NORAD_CAT_ID":55804,"ELEMENT_SET_NO":999,"REV_AT_EPOCH":13219,"BSTAR":-0.00030624,"MEAN_MOTION_DOT":-1.01e-6,"MEAN_MOTION_DDOT":0},{"OBJECT_NAME":"ONEWEB-0641","OBJECT_ID":"2023-029K","EPOCH":"2025-11-22T02:57:18.373248","MEAN_MOTION":13.19717528,"ECCENTRICITY":0.0001834,"INCLINATION":87.9205,"RA_OF_ASC_NODE":346.1641,"ARG_OF_PERICENTER":99.3954,"MEAN_ANOMALY":260.7386,"EPHEMERIS_TYPE":0,"CLASSIFICATION_TYPE":"U","NORAD_CAT_ID":55805,"ELEMENT_SET_NO":999,"REV_AT_EPOCH":13160,"BSTAR":0.0041181,"MEAN_MOTION_DOT":1.662e-5,"MEAN_MOTION_DDOT":0},{"OBJECT_NAME":"ONEWEB-0642","OBJECT_ID":"2023-029L","EPOCH":"2025-11-22T02:50:29.409216","MEAN_MOTION":13.19727815,"ECCENTRICITY":0.0002695,"INCLINATION":87.92,"RA_OF_ASC_NODE":346.1897,"ARG_OF_PERICENTER":84.1395,"MEAN_ANOMALY":276.0045,"EPHEMERIS_TYPE":0,"CLASSIFICATION_TYPE":"U","NORAD_CAT_ID":55806,"ELEMENT_SET_NO":999,"REV_AT_EPOCH":13159,"BSTAR":0.00010423,"MEAN_MOTION_DOT":5.5e-7,"MEAN_MOTION_DDOT":0},{"OBJECT_NAME":"ONEWEB-0643","OBJECT_ID":"2023-029M","EPOCH":"2025-11-22T00:39:45.327744","MEAN_MOTION":13.14502965,"ECCENTRICITY":0.000236,"INCLINATION":87.8988,"RA_OF_ASC_NODE":331.0139,"ARG_OF_PERICENTER":76.5034,"MEAN_ANOMALY":283.6359,"EPHEMERIS_TYPE":0,"CLASSIFICATION_TYPE":"U","NORAD_CAT_ID":55807,"ELEMENT_SET_NO":999,"REV_AT_EPOCH":13217,"BSTAR":-8.186e-5,"MEAN_MOTION_DOT":-1.8e-7,"MEAN_MOTION_DDOT":0},{"OBJECT_NAME":"ONEWEB-0644","OBJECT_ID":"2023-029N","EPOCH":"2025-11-22T02:43:40.637856","MEAN_MOTION":13.19723255,"ECCENTRICITY":0.0002302,"INCLINATION":87.9195,"RA_OF_ASC_NODE":346.2004,"ARG_OF_PERICENTER":86.9836,"MEAN_ANOMALY":273.156,"EPHEMERIS_TYPE":0,"CLASSIFICATION_TYPE":"U","NORAD_CAT_ID":55808,"ELEMENT_SET_NO":999,"REV_AT_EPOCH":13159,"BSTAR":-0.0012459,"MEAN_MOTION_DOT":-4.86e-6,"MEAN_MOTION_DDOT":0},{"OBJECT_NAME":"ONEWEB-0645","OBJECT_ID":"2023-029P","EPOCH":"2025-11-22T08:42:59.750784","MEAN_MOTION":13.19723232,"ECCENTRICITY":0.0002403,"INCLINATION":87.9196,"RA_OF_ASC_NODE":346.1448,"ARG_OF_PERICENTER":97.3161,"MEAN_ANOMALY":262.8245,"EPHEMERIS_TYPE":0,"CLASSIFICATION_TYPE":"U","NORAD_CAT_ID":55809,"ELEMENT_SET_NO":999,"REV_AT_EPOCH":13162,"BSTAR":1.1641e-6,"MEAN_MOTION_DOT":1.3e-7,"MEAN_MOTION_DDOT":0},{"OBJECT_NAME":"ONEWEB-0646","OBJECT_ID":"2023-029Q","EPOCH":"2025-11-22T01:51:23.605056","MEAN_MOTION":13.1972678,"ECCENTRICITY":0.0002102,"INCLINATION":87.9199,"RA_OF_ASC_NODE":346.1917,"ARG_OF_PERICENTER":88.5264,"MEAN_ANOMALY":271.6109,"EPHEMERIS_TYPE":0,"CLASSIFICATION_TYPE":"U","NORAD_CAT_ID":55810,"ELEMENT_SET_NO":999,"REV_AT_EPOCH":13157,"BSTAR":7.0127e-5,"MEAN_MOTION_DOT":4.1e-7,"MEAN_MOTION_DDOT":0},{"OBJECT_NAME":"ONEWEB-0648","OBJECT_ID":"2023-029R","EPOCH":"2025-11-22T10:51:45.239616","MEAN_MOTION":13.14502833,"ECCENTRICITY":0.0002834,"INCLINATION":87.8986,"RA_OF_ASC_NODE":330.8913,"ARG_OF_PERICENTER":92.7865,"MEAN_ANOMALY":267.3589,"EPHEMERIS_TYPE":0,"CLASSIFICATION_TYPE":"U","NORAD_CAT_ID":55811,"ELEMENT_SET_NO":999,"REV_AT_EPOCH":13223,"BSTAR":0.00026878,"MEAN_MOTION_DOT":1.12e-6,"MEAN_MOTION_DDOT":0},{"OBJECT_NAME":"ONEWEB-0649","OBJECT_ID":"2023-029S","EPOCH":"2025-11-22T02:27:44.995968","MEAN_MOTION":13.1972759,"ECCENTRICITY":0.0002311,"INCLINATION":87.9205,"RA_OF_ASC_NODE":346.1822,"ARG_OF_PERICENTER":93.1138,"MEAN_ANOMALY":267.0259,"EPHEMERIS_TYPE":0,"CLASSIFICATION_TYPE":"U","NORAD_CAT_ID":55812,"ELEMENT_SET_NO":999,"REV_AT_EPOCH":13161,"BSTAR":-0.00015784,"MEAN_MOTION_DOT":-5.0e-7,"MEAN_MOTION_DDOT":0},{"OBJECT_NAME":"ONEWEB-0650","OBJECT_ID":"2023-029T","EPOCH":"2025-11-22T02:20:56.304960","MEAN_MOTION":13.19717581,"ECCENTRICITY":0.00027,"INCLINATION":87.9206,"RA_OF_ASC_NODE":346.1909,"ARG_OF_PERICENTER":96.9401,"MEAN_ANOMALY":263.2039,"EPHEMERIS_TYPE":0,"CLASSIFICATION_TYPE":"U","NORAD_CAT_ID":55813,"ELEMENT_SET_NO":999,"REV_AT_EPOCH":13158,"BSTAR":-0.00134,"MEAN_MOTION_DOT":-5.23e-6,"MEAN_MOTION_DDOT":0},{"OBJECT_NAME":"ONEWEB-0652","OBJECT_ID":"2023-029U","EPOCH":"2025-11-21T23:26:40.670304","MEAN_MOTION":13.14502024,"ECCENTRICITY":0.0001659,"INCLINATION":87.8982,"RA_OF_ASC_NODE":331.0074,"ARG_OF_PERICENTER":90.558,"MEAN_ANOMALY":269.574,"EPHEMERIS_TYPE":0,"CLASSIFICATION_TYPE":"U","NORAD_CAT_ID":55814,"ELEMENT_SET_NO":999,"REV_AT_EPOCH":13214,"BSTAR":-0.00052156,"MEAN_MOTION_DOT":-1.81e-6,"MEAN_MOTION_DDOT":0},{"OBJECT_NAME":"ONEWEB-0653","OBJECT_ID":"2023-029V","EPOCH":"2025-11-22T00:53:27.561120","MEAN_MOTION":13.1450227,"ECCENTRICITY":0.0001763,"INCLINATION":87.8982,"RA_OF_ASC_NODE":330.9849,"ARG_OF_PERICENTER":96.0061,"MEAN_ANOMALY":264.127,"EPHEMERIS_TYPE":0,"CLASSIFICATION_TYPE":"U","NORAD_CAT_ID":55815,"ELEMENT_SET_NO":999,"REV_AT_EPOCH":13218,"BSTAR":-0.00032108,"MEAN_MOTION_DOT":-1.06e-6,"MEAN_MOTION_DDOT":0},{"OBJECT_NAME":"ONEWEB-0654","OBJECT_ID":"2023-029W","EPOCH":"2025-11-22T00:46:36.210720","MEAN_MOTION":13.14502313,"ECCENTRICITY":0.000146,"INCLINATION":87.8984,"RA_OF_ASC_NODE":330.9849,"ARG_OF_PERICENTER":94.6324,"MEAN_ANOMALY":265.4973,"EPHEMERIS_TYPE":0,"CLASSIFICATION_TYPE":"U","NORAD_CAT_ID":55816,"ELEMENT_SET_NO":999,"REV_AT_EPOCH":13220,"BSTAR":-0.00023537,"MEAN_MOTION_DOT":-7.4e-7,"MEAN_MOTION_DDOT":0},{"OBJECT_NAME":"ONEWEB-0656","OBJECT_ID":"2023-029X","EPOCH":"2025-11-22T11:07:52.004640","MEAN_MOTION":13.20773978,"ECCENTRICITY":0.0001433,"INCLINATION":87.9187,"RA_OF_ASC_NODE":315.6539,"ARG_OF_PERICENTER":92.4378,"MEAN_ANOMALY":267.6919,"EPHEMERIS_TYPE":0,"CLASSIFICATION_TYPE":"U","NORAD_CAT_ID":55817,"ELEMENT_SET_NO":999,"REV_AT_EPOCH":13386,"BSTAR":0.00018648,"MEAN_MOTION_DOT":8.9e-7,"MEAN_MOTION_DDOT":0}]
