ONEWEB-0564             
1 55801U 23029F   25326.39436522  .00000176  00000+0  40147-3 0  9999
2 55801  87.9176 315.7130 0001544  95.1971 264.9338 13.20772835133858
ONEWEB-0638             
1 55802U 23029G   25326.04822987 -.00000223  00000+0 -63524-3 0  9995
2 55802  87.8975 331.0381 0001781 106.9770 253.1555 13.14502141132185
ONEWEB-0639             
1 55803U 23029H   25326.12787914  .00000172  00000+0  39740-3 0  9999
2 55803  87.9199 346.1837 0002984  90.4024 269.7450 13.19727777131593
ONEWEB-0640             
1 55804U 23029J   25325.98161632 -.00000101  00000+0 -30624-3 0  9992
2 55804  87.8978 331.0379 0002308 108.8653 251.2727 13.14502457132195
ONEWEB-0641             
1 55805U 23029K   25326.12312932  .00001662  00000+0  41181-2 0  9991
2 55805  87.9205 346.1641 0001834  99.3954 260.7386 13.19717528131603
ONEWEB-0642             
1 55806U 23029L   25326.11839594  .00000055  00000+0  10423-3 0  9990
2 55806  87.9200 346.1897 0002695  84.1395 276.0045 13.19727815131599
ONEWEB-0643             
1 55807U 23029M   25326.02760796 -.00000018  00000+0 -81860-4 0  9993
2 55807  87.8988 331.0139 0002360  76.5034 283.6359 13.14502965132177
ONEWEB-0644             
1 55808U 23029N   25326.11366479 -.00000486  00000+0 -12459-2 0  9999
2 55808  87.9195 346.2004 0002302  86.9836 273.1560 13.19723255131594
ONEWEB-0645             
1 55809U 23029P   25326.36319156  .00000013  00000+0  11641-5 0  9996
2 55809  87.9196 346.1448 0002403  97.3161 262.8245 13.19723232131620
ONEWEB-0646             
1 55810U 23029Q   25326.07735654  .00000041  00000+0  70127-4 0  9995
2 55810  87.9199 346.1917 0002102  88.5264 271.6109 13.19726780131570
ONEWEB-0648             
1 55811U 23029R   25326.45260694  .00000112  00000+0  26878-3 0  9997
2 55811  87.8986 330.8913 0002834  92.7865 267.3589 13.14502833132230
ONEWEB-0649             
1 55812U 23029S   25326.10260412 -.00000050  00000+0 -15784-3 0  9995
2 55812  87.9205 346.1822 0002311  93.1138 267.0259 13.19727590131619
ONEWEB-0650             
1 55813U 23029T   25326.09787390 -.00000523  00000+0 -13400-2 0  9990
2 55813  87.9206 346.1909 0002700  96.9401 263.2039 13.19717581131582
ONEWEB-0652             
1 55814U 23029U   25325.97685961 -.00000181  00000+0 -52156-3 0  9990
2 55814  87.8982 331.0074 0001659  90.5580 269.5740 13.14502024132149
ONEWEB-0653             
1 55815U 23029V   25326.03712455 -.00000106  00000+0 -32108-3 0  9990
2 55815  87.8982 330.9849 0001763  96.0061 264.1270 13.14502270132185
ONEWEB-0654             
1 55816U 23029W   25326.03236355 -.00000074  00000+0 -23537-3 0  9991
2 55816  87.8984 330.9849 0001460  94.6324 265.4973 13.14502313132203
ONEWEB-0656             
1 55817U 23029X   25326.46379635  .00000089  00000+0  18648-3 0  9999
2 55817  87.9187 315.6539 0001433  92.4378 267.6919 13.20773978133862
